H1 CPF 01  gfz 2021 03 17 01  5761 tandemx   
H2 1003001  6202 36605    2021 03 17 00 59 42 2021 03 22 00 00 42   120 1 1  0 0 0
H9
10 0 59293  75582.000000  0    1106580.758  -2266734.919   6399197.414
10 0 59293  75702.000000  0     445010.127  -1679722.792   6654690.271
10 0 59293  75822.000000  0    -213693.003  -1051843.201   6793226.666
10 0 59293  75942.000000  0    -857417.076   -394212.444   6812387.584
10 0 59293  76062.000000  0   -1474513.962    281329.969   6711837.961
10 0 59293  76182.000000  0   -2054009.057    962434.052   6493332.179
10 0 59293  76302.000000  0   -2585796.277   1636464.292   6160685.402
10 0 59293  76422.000000  0   -3060815.174   2290733.286   5719711.199
10 0 59293  76542.000000  0   -3471207.829   2912741.188   5178126.508
10 0 59293  76662.000000  0   -3810453.091   3490416.719   4545422.488
10 0 59293  76782.000000  0   -4073474.945   4012354.696   3832703.444
10 0 59293  76902.000000  0   -4256722.695   4468046.365   3052495.584
10 0 59293  77022.000000  0   -4358220.760   4848096.663   2218526.961
10 0 59293  77142.000000  0   -4377585.601   5144422.250   1345482.867
10 0 59293  77262.000000  0   -4316010.966   5350425.438    448742.300
10 0 59293  77382.000000  0   -4176221.734   5461140.760   -455899.720
10 0 59293  77502.000000  0   -3962395.596   5473350.460  -1352520.278
10 0 59293  77622.000000  0   -3680054.280   5385661.828  -2225359.484
10 0 59293  77742.000000  0   -3335927.835   5198548.125  -3059104.319
10 0 59293  77862.000000  0   -2937796.693   4914351.611  -3839162.470
10 0 59293  77982.000000  0   -2494315.849   4537248.066  -4551918.052
10 0 59293  78102.000000  0   -2014825.794   4073176.578  -5184964.941
10 0 59293  78222.000000  0   -1509155.918   3529738.147  -5727314.842
10 0 59293  78342.000000  0    -987423.752   2916063.702  -6169579.762
10 0 59293  78462.000000  0    -459833.689   2242653.758  -6504123.915
10 0 59293  78582.000000  0      63519.725   1521195.470  -6725183.351
10 0 59293  78702.000000  0     572839.989    764360.083  -6828955.370
10 0 59293  78822.000000  0    1058807.686    -14416.182  -6813657.537
10 0 59293  78942.000000  0    1512747.181   -801166.378  -6679554.463
10 0 59293  79062.000000  0    1926777.123  -1581637.061  -6428952.316
10 0 59293  79182.000000  0    2293944.639  -2341539.470  -6066163.785
10 0 59293  79302.000000  0    2608341.301  -3066805.202  -5597442.798
10 0 59293  79422.000000  0    2865199.882  -3743845.645  -5030888.830
10 0 59293  79542.000000  0    3060968.867  -4359808.118  -4376316.116
10 0 59293  79662.000000  0    3193362.289  -4902821.296  -3645093.678
10 0 59293  79782.000000  0    3261386.267  -5362229.892  -2849958.830
10 0 59293  79902.000000  0    3265340.007  -5728813.206  -2004801.384
10 0 59293  80022.000000  0    3206790.607  -5994978.688  -1124422.929
10 0 59293  80142.000000  0    3088521.817  -6154927.818   -224275.722
10 0 59293  80262.000000  0    2914456.402  -6204787.288    679814.828
10 0 59293  80382.000000  0    2689554.851  -6142702.595   1571935.128
10 0 59293  80502.000000  0    2419693.350  -5968892.354   2436373.614
10 0 59293  80622.000000  0    2111522.150  -5685657.957   3257906.762
10 0 59293  80742.000000  0    1772309.853  -5297351.750   4022073.135
10 0 59293  80862.000000  0    1409777.226  -4810305.597   4715432.225
10 0 59293  80982.000000  0    1031925.751  -4232720.400   5325802.548
10 0 59293  81102.000000  0     646863.301  -3574519.638   5842476.324
10 0 59293  81222.000000  0     262631.372  -2847168.444   6256403.125
10 0 59293  81342.000000  0    -112960.984  -2063466.785   6560341.358
10 0 59293  81462.000000  0    -472493.611  -1237320.354   6748978.351
10 0 59293  81582.000000  0    -809080.195   -383492.138   6819018.831
10 0 59293  81702.000000  0   -1116498.994    482662.747   6769239.495
10 0 59293  81822.000000  0   -1389307.398   1345473.190   6600508.730
10 0 59293  81942.000000  0   -1622938.002   2189234.853   6315772.207
10 0 59293  82062.000000  0   -1813775.590   2998495.736   5920004.816
10 0 59293  82182.000000  0   -1959213.383   3758340.259   5420128.414
10 0 59293  82302.000000  0   -2057687.575   4454667.084   4824897.489
10 0 59293  82422.000000  0   -2108690.451   5074457.172   4144751.920
10 0 59293  82542.000000  0   -2112760.484   5606025.251   3391637.964
10 0 59293  82662.000000  0   -2071450.312   6039248.994   2578799.647
10 0 59293  82782.000000  0   -1987272.722   6365770.261   1720544.697
10 0 59293  82902.000000  0   -1863625.371   6579164.410    831988.588
10 0 59293  83022.000000  0   -1704695.952   6675072.368    -71217.922
10 0 59293  83142.000000  0   -1515351.052   6651292.507   -973172.379
10 0 59293  83262.000000  0   -1301010.454   6507829.927  -1858011.611
10 0 59293  83382.000000  0   -1067509.734   6246896.301  -2710201.018
10 0 59293  83502.000000  0    -820956.947   5872865.475  -3514811.411
10 0 59293  83622.000000  0    -567586.332   5392189.579  -4257781.388
10 0 59293  83742.000000  0    -313612.719   4813275.704  -4926161.752
10 0 59293  83862.000000  0     -65089.595   4146327.197  -5508335.802
10 0 59293  83982.000000  0     172226.163   3403153.699  -5994213.792
10 0 59293  84102.000000  0     392999.462   2596953.266  -6375397.620
10 0 59293  84222.000000  0     592429.135   1742073.304  -6645313.838
10 0 59293  84342.000000  0     766346.356    853755.538  -6799316.404
10 0 59293  84462.000000  0     911297.043    -52132.874  -6834758.262
10 0 59293  84582.000000  0    1024607.330   -959377.656  -6751031.712
10 0 59293  84702.000000  0    1104431.061  -1851700.659  -6549575.940
10 0 59293  84822.000000  0    1149779.256  -2713043.142  -6233854.774
10 0 59293  84942.000000  0    1160531.783  -3527848.785  -5809305.915
10 0 59293  85062.000000  0    1137429.010  -4281343.775  -5283257.222
10 0 59293  85182.000000  0    1082045.308  -4959805.177  -4664810.142
10 0 59293  85302.000000  0     996744.290  -5550815.192  -3964694.285
10 0 59293  85422.000000  0     884615.481  -6043497.265  -3195091.095
10 0 59293  85542.000000  0     749394.253  -6428726.935  -2369429.083
10 0 59293  85662.000000  0     595366.746  -6699313.597  -1502153.682
10 0 59293  85782.000000  0     427261.068  -6850147.478   -608473.853
10 0 59293  85902.000000  0     250127.352  -6878306.275    295908.732
10 0 59293  86022.000000  0      69209.886  -6783119.374   1195081.692
10 0 59293  86142.000000  0    -110185.476  -6566187.960   2073210.230
10 0 59293  86262.000000  0    -282825.404  -6231358.997   2914825.978
10 0 59293  86382.000000  0    -443680.871  -5784651.975   3705109.092
10 0 59294    102.000000  0    -588053.395  -5234141.463   4430153.793
10 0 59294    222.000000  0    -711692.796  -4589802.656   5077215.705
10 0 59294    342.000000  0    -810902.937  -3863320.729   5634935.870
10 0 59294    462.000000  0    -882633.753  -3067869.225   6093538.733
10 0 59294    582.000000  0    -924557.263  -2217861.270   6444997.952
10 0 59294    702.000000  0    -935125.916  -1328683.503   6683168.950
10 0 59294    822.000000  0    -913613.161   -416415.603   6803891.283
10 0 59294    942.000000  0    -860135.948    502461.897   6805057.410
10 0 59294   1062.000000  0    -775657.035   1411365.199   6686647.298
10 0 59294   1182.000000  0    -661967.218   2293906.183   6450728.681
10 0 59294   1302.000000  0    -521648.525   3134187.605   6101423.100
10 0 59294   1422.000000  0    -358019.149   3917090.578   5644838.464
10 0 59294   1542.000000  0    -175060.883   4628549.771   5088967.358
10 0 59294   1662.000000  0      22670.170   5255811.735   4443553.935
10 0 59294   1782.000000  0     230147.981   5787672.379   3719926.629
10 0 59294   1902.000000  0     441992.995   6214683.270   2930803.615
10 0 59294   2022.000000  0     652599.164   6529335.123   2090072.236
10 0 59294   2142.000000  0     856269.923   6726198.779   1212537.150
10 0 59294   2262.000000  0    1047356.651   6802024.443    313653.890
10 0 59294   2382.000000  0    1220398.582   6755797.912   -590751.210
10 0 59294   2502.000000  0    1370258.956   6588751.806  -1484768.264
10 0 59294   2622.000000  0    1492254.099   6304332.213  -2352691.205
10 0 59294   2742.000000  0    1582272.785   5908121.962  -3179300.239
10 0 59294   2862.000000  0    1636882.832   5407721.855  -3950133.162
10 0 59294   2982.000000  0    1653422.644   4812593.173  -4651739.402
10 0 59294   3102.000000  0    1630075.267   4133866.232  -5271911.096
10 0 59294   3222.000000  0    1565923.581   3384122.080  -5799887.878
10 0 59294   3342.000000  0    1460986.042   2577151.486  -6226534.499
10 0 59294   3462.000000  0    1316231.717   1727696.100  -6544486.955
10 0 59294   3582.000000  0    1133575.995    851179.444  -6748268.024
10 0 59294   3702.000000  0     915856.439    -36570.323  -6834372.844
10 0 59294   3822.000000  0     666788.933   -919601.442  -6801322.124
10 0 59294   3942.000000  0     390905.034  -1782118.379  -6649683.209
10 0 59294   4062.000000  0      93472.286  -2608755.656  -6382061.129
10 0 59294   4182.000000  0    -219602.955  -3384846.075  -6003061.089
10 0 59294   4302.000000  0    -541888.674  -4096678.873  -5519216.953
10 0 59294   4422.000000  0    -866553.522  -4731741.853  -4938889.471
10 0 59294   4542.000000  0   -1186505.875  -5278946.062  -4272133.795
10 0 59294   4662.000000  0   -1494543.193  -5728827.588  -3530535.849
10 0 59294   4782.000000  0   -1783508.189  -6073721.589  -2727019.366
10 0 59294   4902.000000  0   -2046448.621  -6307904.769  -1875626.479
10 0 59294   5022.000000  0   -2276777.159  -6427702.902   -991274.082
10 0 59294   5142.000000  0   -2468427.155  -6431559.163    -89489.726
10 0 59294   5262.000000  0   -2616000.442  -6320059.854    813867.271
10 0 59294   5382.000000  0   -2714902.896  -6095916.754   1702892.884
10 0 59294   5502.000000  0   -2761464.193  -5763906.384   2561927.658
10 0 59294   5622.000000  0   -2753038.424  -5330767.317   3375841.263
99
